NORAD_CAT_ID,OBJECT_NAME,OBJECT_TYPE,EPOCH,MEAN_MOTION,ECCENTRICITY,INCLINATION,RA_OF_ASC_NODE,ARG_OF_PERICENTER,MEAN_ANOMALY,BSTAR,MEAN_MOTION_DOT,MEAN_MOTION_DDOT,TLE_LINE0,TLE_LINE1,TLE_LINE2,SEMIMAJOR_AXIS,PERIOD,APOGEE,PERIGEE,DECAYED
54809.0,STARLINK-5414,PAYLOAD,2024-07-27 03:28:33,15.08855241,0.0001412,53.2163,159.738,65.3942,294.7197,0.00016175,2.288e-05,0.0,0 STARLINK-5414,1 54809U 22175BD  24209.14482959  .00002288  00000-0  16175-3 0  9995,2 54809  53.2163 159.7380 0001412  65.3942 294.7197 15.08855241 88822,6917.834,95.437,540.676,538.722,0.0
54809.0,STARLINK-5414,PAYLOAD,2024-07-28 03:19:22,15.08817033,0.000113,53.2159,155.2677,80.5711,279.5409,-4.1515e-05,-9.48e-06,0.0,0 STARLINK-5414,1 54809U 22175BD  24210.13846046 -.00000948  00000-0 -41515-4 0  9997,2 54809  53.2159 155.2677 0001130  80.5711 279.5409 15.08817033 88977,6917.951,95.439,540.597,539.034,0.0
54809.0,STARLINK-5414,PAYLOAD,2024-07-28 12:51:41,15.08824013,0.0001226,53.2178,153.4887,83.8661,276.2471,-7.9628e-05,-1.554e-05,0.0,0 STARLINK-5414,1 54809U 22175BD  24210.53590075 -.00001554  00000-0 -79628-4 0  9999,2 54809  53.2178 153.4887 0001226  83.8661 276.2471 15.08824013 89034,6917.929,95.439,540.642,538.946,0.0
54809.0,STARLINK-5414,PAYLOAD,2024-07-29 03:10:07,15.08934293,0.0001478,53.216,150.813,105.7742,254.3413,-0.0012632,-0.00020387,0.0,0 STARLINK-5414,1 54809U 22175BD  24211.13203015 -.00020387  00000-0 -12632-2 0  9996,2 54809  53.2160 150.8130 0001478 105.7742 254.3413 15.08934293 89125,6917.592,95.432,540.48,538.435,0.0
54809.0,STARLINK-5414,PAYLOAD,2024-07-29 12:42:24,15.08924772,0.0001454,53.2163,149.0285,106.3145,253.8007,-0.0011671,-0.00018857,0.0,0 STARLINK-5414,1 54809U 22175BD  24211.52945065 -.00018857  00000-0 -11671-2 0  9998,2 54809  53.2163 149.0285 0001454 106.3145 253.8007 15.08924772 91348,6917.621,95.432,540.492,538.48,0.0
54809.0,STARLINK-5414,PAYLOAD,2024-07-29 19:04:00,15.08830019,0.0001144,53.2166,147.8402,75.7746,284.3373,0.00029243,4.368e-05,0.0,0 STARLINK-5414,1 54809U 22175BD  24211.79444765  .00004368  00000-0  29243-3 0  9993,2 54809  53.2166 147.8402 0001144  75.7746 284.3373 15.08830019 89229,6917.911,95.438,540.567,538.984,0.0
54809.0,STARLINK-5414,PAYLOAD,2024-07-30 03:00:55,15.0884751,0.0001173,53.2152,146.3541,79.6709,280.4416,0.00051779,7.964e-05,0.0,0 STARLINK-5414,1 54809U 22175BD  24212.12564601  .00007964  00000-0  51779-3 0  9997,2 54809  53.2152 146.3541 0001173  79.6709 280.4416 15.08847510 89270,6917.857,95.437,540.534,538.911,0.0
54809.0,STARLINK-5414,PAYLOAD,2024-07-30 12:33:14,15.08853467,0.0001182,53.2143,144.5708,96.5268,263.5859,0.00041459,6.319e-05,0.0,0 STARLINK-5414,1 54809U 22175BD  24212.52308260  .00006319  00000-0  41459-3 0  9995,2 54809  53.2143 144.5708 0001182  96.5268 263.5859 15.08853467 91491,6917.839,95.437,540.522,538.887,0.0
54809.0,STARLINK-5414,PAYLOAD,2024-07-31 12:24:00,15.08853049,0.0001276,53.2138,140.1048,77.1824,282.931,9.7605e-05,1.266e-05,0.0,0 STARLINK-5414,1 54809U 22175BD  24213.51667386  .00001266  00000-0  97605-4 0  9993,2 54809  53.2138 140.1048 0001276  77.1824 282.9310 15.08853049 89480,6917.841,95.437,540.588,538.823,0.0
54809.0,STARLINK-5414,PAYLOAD,2024-07-31 18:45:33,15.08845757,0.0001803,53.214,138.9203,84.7906,275.3292,4.7602e-06,-2.12e-06,0.0,0 STARLINK-5414,1 54809U 22175BD  24213.78163950 -.00000212  00000-0  47602-5 0  9994,2 54809  53.2140 138.9203 0001803  84.7906 275.3292 15.08845757 89529,6917.863,95.437,540.975,538.481,0.0
54809.0,STARLINK-5414,PAYLOAD,2024-08-01 02:42:29,15.08845305,0.0001149,53.215,137.4315,80.3196,279.7926,-4.76e-05,-1.045e-05,0.0,0 STARLINK-5414,1 54809U 22175BD  24214.11283678 -.00001045  00000-0 -47600-4 0  9995,2 54809  53.2150 137.4315 0001149  80.3196 279.7926 15.08845305 91731,6917.864,95.437,540.524,538.934,0.0
54809.0,STARLINK-5414,PAYLOAD,2024-08-01 18:36:20,15.08849033,0.0001047,53.216,134.4585,89.109,271.0022,0.00018551,2.667e-05,0.0,0 STARLINK-5414,1 54809U 22175BD  24214.77523453  .00002667  00000-0  18551-3 0  9996,2 54809  53.2160 134.4585 0001047  89.1090 271.0022 15.08849033 91830,6917.853,95.437,540.442,538.993,0.0
54809.0,STARLINK-5414,PAYLOAD,2024-08-02 00:57:52,15.08858921,0.0001304,53.2155,133.2688,92.6475,267.4667,0.00040092,6.102e-05,0.0,0 STARLINK-5414,1 54809U 22175BD  24215.04019121  .00006102  00000-0  40092-3 0  9992,2 54809  53.2155 133.2688 0001304  92.6475 267.4667 15.08858921 89711,6917.823,95.436,540.59,538.785,0.0
54809.0,STARLINK-5414,PAYLOAD,2024-08-02 12:05:34,15.08850268,0.0001484,53.2156,131.1891,87.4031,272.7131,0.00029448,4.403e-05,0.0,0 STARLINK-5414,1 54809U 22175BD  24215.50387409  .00004403  00000-0  29448-3 0  9994,2 54809  53.2156 131.1891 0001484  87.4031 272.7131 15.08850268 89782,6917.849,95.437,540.741,538.687,0.0
54809.0,STARLINK-5414,PAYLOAD,2024-08-02 21:37:54,15.08827479,0.0001317,53.2163,129.4048,93.8875,266.2268,-0.00022099,-3.802e-05,0.0,0 STARLINK-5414,1 54809U 22175BD  24215.90132190 -.00003802  00000-0 -22099-3 0  9992,2 54809  53.2163 129.4048 0001317  93.8875 266.2268 15.08827479 92002,6917.919,95.438,540.695,538.873,0.0
54809.0,STARLINK-5414,PAYLOAD,2024-08-03 03:59:26,15.08834586,0.0001565,53.2163,128.212,109.8339,250.2822,-2.4713e-05,-6.81e-06,0.0,0 STARLINK-5414,1 54809U 22175BD  24216.16627939 -.00000681  00000-0 -24713-4 0  9999,2 54809  53.2163 128.2120 0001565 109.8339 250.2822 15.08834586 89886,6917.897,95.438,540.845,538.679,0.0
54809.0,STARLINK-5414,PAYLOAD,2024-08-03 21:28:41,15.08838657,0.0001679,53.2169,124.9406,116.6771,243.4393,0.00051845,7.972e-05,0.0,0 STARLINK-5414,1 54809U 22175BD  24216.89492462  .00007972  00000-0  51845-3 0  9993,2 54809  53.2169 124.9406 0001679 116.6771 243.4393 15.08838657 92158,6917.884,95.438,540.911,538.588,0.0
54809.0,STARLINK-5414,PAYLOAD,2024-08-04 03:50:13,15.08852067,0.0001665,53.2171,123.7504,118.6973,241.4187,0.00095798,0.00014996,0.0,0 STARLINK-5414,1 54809U 22175BD  24217.15988300  .00014996  00000-0  95798-3 0  9993,2 54809  53.2171 123.7504 0001665 118.6973 241.4187 15.08852067 90033,6917.844,95.437,540.86,538.557,0.0
54809.0,STARLINK-5414,PAYLOAD,2024-08-04 21:19:28,15.08856733,0.0001514,53.217,120.4771,103.907,256.2091,0.00068891,0.00010698,0.0,0 STARLINK-5414,1 54809U 22175BD  24217.88852132  .00010698  00000-0  68891-3 0  9995,2 54809  53.2170 120.4771 0001514 103.9070 256.2091 15.08856733 90144,6917.829,95.436,540.742,538.647,0.0
54809.0,STARLINK-5414,PAYLOAD,2024-08-04 22:54:50,15.08879635,0.0002419,53.2172,120.1825,130.6936,229.4267,0.0012765,0.00020108,0.0,0 STARLINK-5414,1 54809U 22175BD  24217.95475542  .00020108  00000-0  12765-2 0  9994,2 54809  53.2172 120.1825 0002419 130.6936 229.4267 15.08879635 92310,6917.759,95.435,541.298,537.951,0.0
54809.0,STARLINK-5414,PAYLOAD,2024-08-05 03:41:00,15.0888823,0.0001104,53.2168,119.2902,88.4521,271.6598,0.0016465,0.00026048,0.0,0 STARLINK-5414,1 54809U 22175BD  24218.15347442  .00026048  00000-0  16465-2 0  9994,2 54809  53.2168 119.2902 0001104  88.4521 271.6598 15.08888230 90180,6917.733,95.435,540.362,538.834,0.0
54809.0,STARLINK-5414,PAYLOAD,2024-08-05 21:10:15,15.08807765,0.0001459,53.2166,116.0171,57.1104,303.0029,-0.0010205,-0.00016478,0.0,0 STARLINK-5414,1 54809U 22175BD  24218.88212800 -.00016478  00000-0 -10205-2 0  9997,2 54809  53.2166 116.0171 0001459  57.1104 303.0029 15.08807765 90299,6917.979,95.44,540.853,538.835,0.0
54809.0,STARLINK-5414,PAYLOAD,2024-08-05 22:45:39,15.08812929,0.000132,53.2162,115.7237,76.8561,283.2578,-0.00056346,-9.237e-05,0.0,0 STARLINK-5414,1 54809U 22175BD  24218.94836909 -.00009237  00000-0 -56346-3 0  9998,2 54809  53.2162 115.7237 0001320  76.8561 283.2578 15.08812929 92463,6917.963,95.439,540.741,538.915,0.0
54809.0,STARLINK-5414,PAYLOAD,2024-08-06 00:21:02,15.08814782,0.0001256,53.2153,115.4298,89.0306,271.083,-0.00041484,-6.879e-05,0.0,0 STARLINK-5414,1 54809U 22175BD  24219.01460915 -.00006879  00000-0 -41484-3 0  9993,2 54809  53.2153 115.4298 0001256  89.0306 271.0830 15.08814782 90315,6917.957,95.439,540.691,538.954,0.0
54809.0,STARLINK-5414,PAYLOAD,2024-08-06 09:53:21,15.08825273,0.000146,53.2164,113.6458,90.8796,269.2364,0.00024263,3.574e-05,0.0,0 STARLINK-5414,1 54809U 22175BD  24219.41205357  .00003574  00000-0  24263-3 0  9997,2 54809  53.2164 113.6458 0001460  90.8796 269.2364 15.08825273 90379,6917.925,95.438,540.8,538.78,0.0
54809.0,STARLINK-5414,PAYLOAD,2024-08-06 21:01:03,15.08848501,0.0001224,53.2154,111.5629,78.0204,282.0925,0.00096887,0.00015169,0.0,0 STARLINK-5414,1 54809U 22175BD  24219.87573221  .00015169  00000-0  96887-3 0  9999,2 54809  53.2154 111.5629 0001224  78.0204 282.0925 15.08848501 92608,6917.854,95.437,540.566,538.873,0.0
54809.0,STARLINK-5414,PAYLOAD,2024-08-07 01:47:12,15.08871793,0.0001236,53.2154,110.671,78.9806,281.1325,0.0019156,0.00030357,0.0,0 STARLINK-5414,1 54809U 22175BD  24220.07444972  .00030357  00000-0  19156-2 0  9992,2 54809  53.2154 110.6710 0001236  78.9806 281.1325 15.08871793 90475,6917.783,95.436,540.503,538.793,0.0
54809.0,STARLINK-5414,PAYLOAD,2024-08-07 20:51:50,15.08863193,0.0001586,53.2148,107.1022,84.6839,275.4334,0.0015951,0.00025205,0.0,0 STARLINK-5414,1 54809U 22175BD  24220.86932875  .00025205  00000-0  15951-2 0  9998,2 54809  53.2148 107.1022 0001586  84.6839 275.4334 15.08863193 90597,6917.809,95.436,540.772,538.577,0.0
54809.0,STARLINK-5414,PAYLOAD,2024-08-08 20:42:37,15.08875371,0.0001983,53.2153,102.6404,44.073,316.042,0.0023114,0.00036726,0.0,0 STARLINK-5414,1 54809U 22175BD  24221.86292965  .00036726  00000-0  23114-2 0  9998,2 54809  53.2153 102.6404 0001983  44.0730 316.0420 15.08875371 90744,6917.772,95.435,541.009,538.265,0.0
54809.0,STARLINK-5414,PAYLOAD,2024-08-08 22:17:59,15.0887861,0.0001554,53.2151,102.3433,95.3929,264.7241,0.0021848,0.00034691,0.0,0 STARLINK-5414,1 54809U 22175BD  24221.92916478  .00034691  00000-0  21848-2 0  9998,2 54809  53.2151 102.3433 0001554  95.3929 264.7241 15.08878610 92914,6917.762,95.435,540.702,538.552,0.0
